{
    "links": {
        "self": "http://www.neowsapp.com/rest/v1/neo/3625863?api_key=iIulBulltgU6a56xZRHN4H3l9WmuAYTsLGpBGhQ2"
    },
    "id": "3625863",
    "neo_reference_id": "3625863",
    "name": "(2013 CY10)",
    "designation": "2013 CY10",
    "nasa_jpl_url": "http://ssd.jpl.nasa.gov/sbdb.cgi?sstr=3625863",
    "absolute_magnitude_h": 23.9,
    "estimated_diameter": {
        "kilometers": {
            "estimated_diameter_min": 0.04411182,
            "estimated_diameter_max": 0.0986370281
        },
        "meters": {
            "estimated_diameter_min": 44.1118199997,
            "estimated_diameter_max": 98.6370281305
        },
        "miles": {
            "estimated_diameter_min": 0.0274098057,
            "estimated_diameter_max": 0.0612901888
        },
        "feet": {
            "estimated_diameter_min": 144.7238235278,
            "estimated_diameter_max": 323.6123073718
        }
    },
    "is_potentially_hazardous_asteroid": false,
    "close_approach_data": [
        {
            "close_approach_date": "2013-01-25",
            "close_approach_date_full": "2013-Jan-25 12:55",
            "epoch_date_close_approach": 1359118500000,
            "relative_velocity": {
                "kilometers_per_second": "14.3277591448",
                "kilometers_per_hour": "51579.9329211472",
                "miles_per_hour": "32049.7644309206"
            },
            "miss_distance": {
                "astronomical": "0.2094279197",
                "lunar": "81.4674607633",
                "kilometers": "31329970.705651039",
                "miles": "19467541.0746167782"
            },
            "orbiting_body": "Earth"
        }
    ],
    "orbital_data": {
        "orbit_id": "5",
        "orbit_determination_date": "2017-04-06 08:46:56",
        "first_observation_date": "2013-02-03",
        "last_observation_date": "2013-02-07",
        "data_arc_in_days": 4,
        "observations_used": 12,
        "orbit_uncertainty": "9",
        "minimum_orbit_intersection": ".207503",
        "jupiter_tisserand_invariant": "3.369",
        "epoch_osculation": "2456327.5",
        "eccentricity": ".4865235058001786",
        "semi_major_axis": "2.230235786882377",
        "inclination": "25.10337335606243",
        "ascending_node_longitude": "313.8700944972827",
        "orbital_period": "1216.534969625829",
        "perihelion_distance": "1.145173653087343",
        "perihelion_argument": "146.722546091935",
        "aphelion_distance": "3.315297920677412",
        "perihelion_time": "2456291.368667778390",
        "mean_anomaly": "10.69207209372721",
        "mean_motion": ".2959224428301683",
        "equinox": "J2000",
        "orbit_class": {
            "orbit_class_type": "AMO",
            "orbit_class_description": "Near-Earth asteroid orbits similar to that of 1221 Amor",
            "orbit_class_range": "1.017 AU < q (perihelion) < 1.3 AU"
        }
    },
    "is_sentry_object": false
}